*******************************************************************************
Ephemeris / WWW_USER Mon Mar 10 07:41:51 2025 Pasadena, USA      / Horizons    
*******************************************************************************
Target body name: (2013 AZ60)                     {source: JPL#49}
Center body name: Earth (399)                     {source: DE441}
Center-site name: Mauna Kea
*******************************************************************************
Start time      : A.D. 2019-Jan-05 04:06:00.0000 UT      
Stop  time      : A.D. 2019-Jan-05 16:47:00.0000 UT      
Step-size       : 1 minutes
*******************************************************************************
Target pole/equ : undefined
Target radii    : undefined                                                    
Center geodetic : 204.5278, 19.8260847, 4.21024   {E-lon(deg),Lat(deg),Alt(km)}
Center cylindric: 204.5278, 6006.35451, 2151.0229 {E-lon(deg),Dxy(km),Dz(km)}
Center pole/equ : ITRF93                          {East-longitude positive}
Center radii    : 6378.137, 6378.137, 6356.752 km {Equator_a, b, pole_c}       
Target primary  : Sun
Vis. interferer : MOON (R_eq= 1737.400) km        {source: DE441}
Rel. light bend : Sun                             {source: DE441}
Rel. lght bnd GM: 1.3271E+11 km^3/s^2                                          
Small-body perts: Yes                             {source: SB441-N16}
Atmos refraction: NO (AIRLESS)
RA format       : HMS
Time format     : CAL 
Calendar mode   : Mixed Julian/Gregorian
RTS-only print  : NO       
EOP file        : eop.250307.p250603                                           
EOP coverage    : DATA-BASED 1962-JAN-20 TO 2025-MAR-07. PREDICTS-> 2025-JUN-02
Units conversion: 1 au= 149597870.700 km, c= 299792.458 km/s, 1 day= 86400.0 s 
Table cut-offs 1: Elevation (-90.0deg=NO ),Airmass (>38.000=NO), Daylight (YES)
Table cut-offs 2: Solar elongation (  0.0,180.0=NO ),Local Hour Angle( 0.0=NO )
Table cut-offs 3: RA/DEC angular rate (     0.0=NO )                           
*******************************************************************************
Initial IAU76/J2000 heliocentric ecliptic osculating elements (au, days, deg.):
  EPOCH=  2457400.5 ! 2016-Jan-13.00 (TDB)         Residual RMS= .1326         
   EC= .9891456016948332   QR= 7.910280980491398   TP= 2456989.3208761909      
   OM= 349.2102750469422   W=  158.2320149266156   IN= 16.53862471305098       
  Equivalent ICRF heliocentric cartesian coordinates (au, au/d):
   X=-8.215502218447208E+00  Y= 1.083611838195559E+00  Z= 3.298265209415168E-01
  VX=-2.822922434188891E-03 VY=-6.008885131743716E-03 VZ=-5.184670886061429E-03
Asteroid physical parameters (km, seconds, rotational period in hours):        
   GM= n.a.                RAD= n.a.               ROTPER= 9.39                
   H= 10.3                 G= .150                 B-V= n.a.                   
                           ALBEDO= n.a.            STYP= n.a.                  
*******************************************************************************
 Date__(UT)__HR:MN     R.A._________(ICRF)_________DEC
******************************************************
$$SOE
 2019-Jan-05 10:15     14 17 29.186361 -26 21 59.88703
 2019-Jan-05 10:16     14 17 29.196050 -26 21 59.98789
 2019-Jan-05 10:17     14 17 29.205737 -26 22 00.08875
 2019-Jan-05 10:18     14 17 29.215423 -26 22 00.18961
 2019-Jan-05 10:19     14 17 29.225108 -26 22 00.29047
 2019-Jan-05 10:20     14 17 29.234792 -26 22 00.39133
 2019-Jan-05 10:21     14 17 29.244475 -26 22 00.49220
 2019-Jan-05 10:22     14 17 29.254157 -26 22 00.59306
 2019-Jan-05 10:23     14 17 29.263838 -26 22 00.69393
 2019-Jan-05 10:24     14 17 29.273517 -26 22 00.79480
 2019-Jan-05 10:25     14 17 29.283196 -26 22 00.89567
 2019-Jan-05 10:26     14 17 29.292874 -26 22 00.99654
 2019-Jan-05 10:27     14 17 29.302550 -26 22 01.09741
 2019-Jan-05 10:28     14 17 29.312226 -26 22 01.19829
 2019-Jan-05 10:29     14 17 29.321900 -26 22 01.29917
 2019-Jan-05 10:30     14 17 29.331574 -26 22 01.40004
 2019-Jan-05 10:31     14 17 29.341246 -26 22 01.50092
 2019-Jan-05 10:32     14 17 29.350917 -26 22 01.60180
 2019-Jan-05 10:33     14 17 29.360587 -26 22 01.70268
 2019-Jan-05 10:34     14 17 29.370256 -26 22 01.80357
 2019-Jan-05 10:35     14 17 29.379924 -26 22 01.90445
 2019-Jan-05 10:36     14 17 29.389591 -26 22 02.00533
 2019-Jan-05 10:37     14 17 29.399257 -26 22 02.10622
 2019-Jan-05 10:38     14 17 29.408922 -26 22 02.20711
 2019-Jan-05 10:39     14 17 29.418586 -26 22 02.30800
 2019-Jan-05 10:40     14 17 29.428248 -26 22 02.40889
 2019-Jan-05 10:41     14 17 29.437910 -26 22 02.50978
 2019-Jan-05 10:42     14 17 29.447570 -26 22 02.61067
 2019-Jan-05 10:43     14 17 29.457230 -26 22 02.71156
 2019-Jan-05 10:44     14 17 29.466888 -26 22 02.81246
 2019-Jan-05 10:45     14 17 29.476545 -26 22 02.91335
 2019-Jan-05 10:46     14 17 29.486201 -26 22 03.01425
 2019-Jan-05 10:47     14 17 29.495857 -26 22 03.11514
 2019-Jan-05 10:48     14 17 29.505510 -26 22 03.21604
 2019-Jan-05 10:49     14 17 29.515163 -26 22 03.31694
 2019-Jan-05 10:50     14 17 29.524815 -26 22 03.41784
 2019-Jan-05 10:51     14 17 29.534466 -26 22 03.51874
 2019-Jan-05 10:52     14 17 29.544115 -26 22 03.61964
 2019-Jan-05 10:53     14 17 29.553764 -26 22 03.72054
 2019-Jan-05 10:54     14 17 29.563411 -26 22 03.82144
 2019-Jan-05 10:55     14 17 29.573058 -26 22 03.92235
 2019-Jan-05 10:56     14 17 29.582703 -26 22 04.02325
 2019-Jan-05 10:57     14 17 29.592347 -26 22 04.12415
 2019-Jan-05 10:58     14 17 29.601990 -26 22 04.22506
 2019-Jan-05 10:59     14 17 29.611632 -26 22 04.32596
 2019-Jan-05 11:00     14 17 29.621273 -26 22 04.42687
 2019-Jan-05 11:01     14 17 29.630912 -26 22 04.52778
 2019-Jan-05 11:02     14 17 29.640551 -26 22 04.62869
 2019-Jan-05 11:03     14 17 29.650188 -26 22 04.72959
 2019-Jan-05 11:04     14 17 29.659825 -26 22 04.83050
 2019-Jan-05 11:05     14 17 29.669460 -26 22 04.93141
 2019-Jan-05 11:06     14 17 29.679094 -26 22 05.03232
 2019-Jan-05 11:07     14 17 29.688727 -26 22 05.13323
 2019-Jan-05 11:08     14 17 29.698359 -26 22 05.23414
 2019-Jan-05 11:09     14 17 29.707990 -26 22 05.33505
 2019-Jan-05 11:10     14 17 29.717620 -26 22 05.43596
 2019-Jan-05 11:11     14 17 29.727249 -26 22 05.53687
 2019-Jan-05 11:12     14 17 29.736876 -26 22 05.63779
 2019-Jan-05 11:13     14 17 29.746503 -26 22 05.73870
 2019-Jan-05 11:14     14 17 29.756128 -26 22 05.83961
 2019-Jan-05 11:15     14 17 29.765752 -26 22 05.94052
 2019-Jan-05 11:16     14 17 29.775376 -26 22 06.04143
 2019-Jan-05 11:17     14 17 29.784998 -26 22 06.14235
 2019-Jan-05 11:18     14 17 29.794618 -26 22 06.24326
 2019-Jan-05 11:19     14 17 29.804238 -26 22 06.34417
 2019-Jan-05 11:20     14 17 29.813857 -26 22 06.44509
 2019-Jan-05 11:21     14 17 29.823475 -26 22 06.54600
 2019-Jan-05 11:22     14 17 29.833091 -26 22 06.64691
 2019-Jan-05 11:23     14 17 29.842706 -26 22 06.74783
 2019-Jan-05 11:24     14 17 29.852321 -26 22 06.84874
 2019-Jan-05 11:25     14 17 29.861934 -26 22 06.94965
 2019-Jan-05 11:26     14 17 29.871546 -26 22 07.05057
 2019-Jan-05 11:27     14 17 29.881157 -26 22 07.15148
 2019-Jan-05 11:28     14 17 29.890766 -26 22 07.25239
 2019-Jan-05 11:29     14 17 29.900375 -26 22 07.35331
 2019-Jan-05 11:30     14 17 29.909983 -26 22 07.45422
 2019-Jan-05 11:31     14 17 29.919589 -26 22 07.55513
 2019-Jan-05 11:32     14 17 29.929194 -26 22 07.65604
 2019-Jan-05 11:33     14 17 29.938799 -26 22 07.75696
 2019-Jan-05 11:34     14 17 29.948402 -26 22 07.85787
 2019-Jan-05 11:35     14 17 29.958004 -26 22 07.95878
 2019-Jan-05 11:36     14 17 29.967604 -26 22 08.05969
 2019-Jan-05 11:37     14 17 29.977204 -26 22 08.16060
 2019-Jan-05 11:38     14 17 29.986803 -26 22 08.26151
 2019-Jan-05 11:39     14 17 29.996400 -26 22 08.36242
 2019-Jan-05 11:40     14 17 30.005997 -26 22 08.46333
 2019-Jan-05 11:41     14 17 30.015592 -26 22 08.56424
 2019-Jan-05 11:42     14 17 30.025186 -26 22 08.66515
 2019-Jan-05 11:43     14 17 30.034779 -26 22 08.76606
 2019-Jan-05 11:44     14 17 30.044371 -26 22 08.86697
 2019-Jan-05 11:45     14 17 30.053962 -26 22 08.96788
 2019-Jan-05 11:46     14 17 30.063552 -26 22 09.06878
 2019-Jan-05 11:47     14 17 30.073140 -26 22 09.16969
 2019-Jan-05 11:48     14 17 30.082728 -26 22 09.27060
 2019-Jan-05 11:49     14 17 30.092314 -26 22 09.37150
 2019-Jan-05 11:50     14 17 30.101899 -26 22 09.47240
 2019-Jan-05 11:51     14 17 30.111483 -26 22 09.57331
 2019-Jan-05 11:52     14 17 30.121066 -26 22 09.67421
 2019-Jan-05 11:53     14 17 30.130648 -26 22 09.77511
 2019-Jan-05 11:54     14 17 30.140229 -26 22 09.87602
 2019-Jan-05 11:55     14 17 30.149809 -26 22 09.97692
 2019-Jan-05 11:56     14 17 30.159387 -26 22 10.07782
 2019-Jan-05 11:57     14 17 30.168965 -26 22 10.17872
 2019-Jan-05 11:58     14 17 30.178541 -26 22 10.27961
 2019-Jan-05 11:59     14 17 30.188116 -26 22 10.38051
 2019-Jan-05 12:00     14 17 30.197690 -26 22 10.48141
 2019-Jan-05 12:01     14 17 30.207263 -26 22 10.58230
 2019-Jan-05 12:02     14 17 30.216835 -26 22 10.68320
 2019-Jan-05 12:03     14 17 30.226406 -26 22 10.78409
 2019-Jan-05 12:04     14 17 30.235976 -26 22 10.88498
 2019-Jan-05 12:05     14 17 30.245544 -26 22 10.98588
 2019-Jan-05 12:06     14 17 30.255112 -26 22 11.08677
 2019-Jan-05 12:07     14 17 30.264678 -26 22 11.18766
 2019-Jan-05 12:08     14 17 30.274243 -26 22 11.28854
 2019-Jan-05 12:09     14 17 30.283807 -26 22 11.38943
 2019-Jan-05 12:10  r  14 17 30.293370 -26 22 11.49032
 2019-Jan-05 12:11     14 17 30.302932 -26 22 11.59120
 2019-Jan-05 12:12     14 17 30.312493 -26 22 11.69209
 2019-Jan-05 12:13     14 17 30.322052 -26 22 11.79297
 2019-Jan-05 12:14     14 17 30.331611 -26 22 11.89385
 2019-Jan-05 12:15     14 17 30.341168 -26 22 11.99473
 2019-Jan-05 12:16     14 17 30.350725 -26 22 12.09561
 2019-Jan-05 12:17     14 17 30.360280 -26 22 12.19648
